NORAD_CAT_ID,OBJECT_NAME,OBJECT_TYPE,EPOCH,MEAN_MOTION,ECCENTRICITY,INCLINATION,RA_OF_ASC_NODE,ARG_OF_PERICENTER,MEAN_ANOMALY,BSTAR,MEAN_MOTION_DOT,MEAN_MOTION_DDOT,TLE_LINE0,TLE_LINE1,TLE_LINE2,SEMIMAJOR_AXIS,PERIOD,APOGEE,PERIGEE,DECAYED
55633.0,STARLINK-5498,PAYLOAD,2024-04-22 10:20:26,14.98338696,0.0003161,69.9994,134.7459,261.058,99.0221,-2.3388e-06,-1.21e-06,0.0,0 STARLINK-5498,1 55633U 23021F   24113.43086033 -.00000121  00000-0 -23388-5 0  9993,2 55633  69.9994 134.7459 0003161 261.0580  99.0221 14.98338696 65502,6950.166,96.106,574.228,569.834,0.0
55633.0,STARLINK-5498,PAYLOAD,2024-04-22 11:56:34,14.98339881,0.0003247,69.9995,134.5775,264.3424,95.7365,-3.8207e-05,-5.49e-06,0.0,0 STARLINK-5498,1 55633U 23021F   24113.49761960 -.00000549  00000-0 -38207-4 0  9997,2 55633  69.9995 134.5775 0003247 264.3424  95.7365 14.98339881 65510,6950.162,96.106,574.284,569.771,0.0
55633.0,STARLINK-5498,PAYLOAD,2024-04-23 03:57:55,14.98325327,0.0003642,69.9995,132.8937,271.3034,88.7708,0.00020243,2.323e-05,0.0,0 STARLINK-5498,1 55633U 23021F   24114.16522158  .00002323  00000-0  20243-3 0  9996,2 55633  69.9995 132.8937 0003642 271.3034  88.7708 14.98325327 65316,6950.207,96.107,574.604,569.541,0.0
55633.0,STARLINK-5498,PAYLOAD,2024-04-23 10:22:31,14.9827914,0.000381,69.9987,132.2208,273.8958,86.1766,-0.00033949,-4.136e-05,0.0,0 STARLINK-5498,1 55633U 23021F   24114.43230660 -.00004136  00000-0 -33949-3 0  9993,2 55633  69.9987 132.2208 0003810 273.8958  86.1766 14.98279140 65352,6950.35,96.11,574.863,569.567,0.0
55633.0,STARLINK-5498,PAYLOAD,2024-04-24 03:59:55,14.98348106,0.0003705,69.9986,130.3686,266.5701,93.5034,0.00027889,3.238e-05,0.0,0 STARLINK-5498,1 55633U 23021F   24115.16661249  .00003238  00000-0  27889-3 0  9991,2 55633  69.9986 130.3686 0003705 266.5701  93.5034 14.98348106 65469,6950.137,96.106,574.577,569.427,0.0
55633.0,STARLINK-5498,PAYLOAD,2024-04-24 10:24:27,14.98348826,0.0003737,69.9994,129.6955,267.7453,92.3278,0.0004155,4.871e-05,0.0,0 STARLINK-5498,1 55633U 23021F   24115.43365494  .00004871  00000-0  41550-3 0  9999,2 55633  69.9994 129.6955 0003737 267.7453  92.3278 14.98348826 65804,6950.135,96.106,574.597,569.402,0.0
55633.0,STARLINK-5498,PAYLOAD,2024-04-25 04:01:56,14.98334946,0.0004062,69.9994,127.8451,275.2133,84.8562,0.00017475,1.993e-05,0.0,0 STARLINK-5498,1 55633U 23021F   24116.16801691  .00001993  00000-0  17475-3 0  9995,2 55633  69.9994 127.8451 0004062 275.2133  84.8562 14.98334946 65615,6950.178,96.107,574.866,569.219,0.0
55633.0,STARLINK-5498,PAYLOAD,2024-04-25 10:26:29,14.98331223,0.0003835,69.9993,127.171,272.8845,87.1875,0.0001378,1.552e-05,0.0,0 STARLINK-5498,1 55633U 23021F   24116.43505849  .00001552  00000-0  13780-3 0  9997,2 55633  69.9993 127.1710 0003835 272.8845  87.1875 14.98331223 65950,6950.189,96.107,574.72,569.389,0.0
55633.0,STARLINK-5498,PAYLOAD,2024-04-26 04:03:57,14.98344958,0.0003781,69.9986,125.3198,269.4192,90.6534,-6.0961e-05,-8.21e-06,0.0,0 STARLINK-5498,1 55633U 23021F   24117.16941242 -.00000821  00000-0 -60961-4 0  9993,2 55633  69.9986 125.3198 0003781 269.4192  90.6534 14.98344958 65768,6950.147,96.106,574.639,569.384,0.0
55633.0,STARLINK-5498,PAYLOAD,2024-04-26 10:28:30,14.98292742,0.0003247,69.9991,124.6466,270.105,89.9737,0.00094051,0.00011136,0.0,0 STARLINK-5498,1 55633U 23021F   24117.43646694  .00011136  00000-0  94051-3 0  9991,2 55633  69.9991 124.6466 0003247 270.1050  89.9737 14.98292742 65807,6950.308,96.109,574.43,569.916,0.0
55633.0,STARLINK-5498,PAYLOAD,2024-04-26 23:17:33,14.98336001,0.0003523,69.9991,123.3002,267.9729,92.1027,8.415e-05,9.11e-06,0.0,0 STARLINK-5498,1 55633U 23021F   24117.97052836  .00000911  00000-0  84150-4 0  9998,2 55633  69.9991 123.3002 0003523 267.9729  92.1027 14.98336001 66180,6950.174,96.107,574.488,569.591,0.0
55633.0,STARLINK-5498,PAYLOAD,2024-04-27 04:05:57,14.98334179,0.0003562,69.9989,122.7948,268.7224,91.3527,5.866e-05,6.07e-06,0.0,0 STARLINK-5498,1 55633U 23021F   24118.17080988  .00000607  00000-0  58660-4 0  9999,2 55633  69.9989 122.7948 0003562 268.7224  91.3527 14.98334179 65911,6950.18,96.107,574.521,569.569,0.0
55633.0,STARLINK-5498,PAYLOAD,2024-04-27 10:30:30,14.98335211,0.0003562,69.9988,122.1216,268.494,91.5811,6.2126e-05,6.48e-06,0.0,0 STARLINK-5498,1 55633U 23021F   24118.43784819  .00000648  00000-0  62126-4 0  9999,2 55633  69.9988 122.1216 0003562 268.4940  91.5811 14.98335211 66258,6950.177,96.107,574.517,569.566,0.0
55633.0,STARLINK-5498,PAYLOAD,2024-04-27 16:55:02,14.98331462,0.0003516,69.9989,121.4482,268.887,91.1886,-3.0477e-06,-1.29e-06,0.0,0 STARLINK-5498,1 55633U 23021F   24118.70489088 -.00000129  00000-0 -30477-5 0  9990,2 55633  69.9989 121.4482 0003516 268.8870  91.1886 14.98331462 66297,6950.188,96.107,574.497,569.61,0.0
55633.0,STARLINK-5498,PAYLOAD,2024-04-28 04:07:59,14.98329594,0.0003479,69.9988,120.2702,268.0383,92.0378,-4.1232e-05,-5.85e-06,0.0,0 STARLINK-5498,1 55633U 23021F   24119.17221269 -.00000585  00000-0 -41232-4 0  9993,2 55633  69.9988 120.2702 0003479 268.0383  92.0378 14.98329594 66061,6950.194,96.107,574.477,569.641,0.0
55633.0,STARLINK-5498,PAYLOAD,2024-04-28 10:32:31,14.98329052,0.0003476,69.9987,119.5968,268.1766,91.8995,-4.7471e-05,-6.59e-06,0.0,0 STARLINK-5498,1 55633U 23021F   24119.43925301 -.00000659  00000-0 -47471-4 0  9993,2 55633  69.9987 119.5968 0003476 268.1766  91.8995 14.98329052 66407,6950.196,96.107,574.477,569.645,0.0
55633.0,STARLINK-5498,PAYLOAD,2024-04-28 16:57:03,14.98329287,0.0003477,69.9988,118.9235,268.1102,91.9659,-2.8502e-05,-4.33e-06,0.0,0 STARLINK-5498,1 55633U 23021F   24119.70629206 -.00000433  00000-0 -28502-4 0  9992,2 55633  69.9988 118.9235 0003477 268.1102  91.9659 14.98329287 66445,6950.195,96.107,574.477,569.644,0.0
55633.0,STARLINK-5498,PAYLOAD,2024-04-29 05:46:07,14.9833092,0.0003512,69.9985,117.5763,270.0826,89.993,2.4242e-05,1.96e-06,0.0,0 STARLINK-5498,1 55633U 23021F   24120.24036928  .00000196  00000-0  24242-4 0  9997,2 55633  69.9985 117.5763 0003512 270.0826  89.9930 14.98330920 66229,6950.19,96.107,574.496,569.614,0.0
55633.0,STARLINK-5498,PAYLOAD,2024-04-29 08:58:24,14.98330695,0.0003515,69.9985,117.2397,269.8783,90.1973,2.1018e-05,1.58e-06,0.0,0 STARLINK-5498,1 55633U 23021F   24120.37388944  .00000158  00000-0  21018-4 0  9995,2 55633  69.9985 117.2397 0003515 269.8783  90.1973 14.98330695 66545,6950.191,96.107,574.499,569.613,0.0
55633.0,STARLINK-5498,PAYLOAD,2024-04-30 05:48:08,14.9832988,0.0003607,69.9982,115.051,270.1376,89.937,7.4375e-05,7.94e-06,0.0,0 STARLINK-5498,1 55633U 23021F   24121.24176853  .00000794  00000-0  74375-4 0  9996,2 55633  69.9982 115.0510 0003607 270.1376  89.9370 14.98329880 66372,6950.193,96.107,574.565,569.551,0.0
55633.0,STARLINK-5498,PAYLOAD,2024-04-30 09:00:24,14.98330583,0.0003587,69.9983,114.7144,270.0885,89.9863,8.0606e-05,8.69e-06,0.0,0 STARLINK-5498,1 55633U 23021F   24121.37528793  .00000869  00000-0  80606-4 0  9991,2 55633  69.9983 114.7144 0003587 270.0885  89.9863 14.98330583 66697,6950.191,96.107,574.549,569.563,0.0
55633.0,STARLINK-5498,PAYLOAD,2024-04-30 17:01:05,14.98329752,0.0003574,69.9983,113.8727,269.9035,90.1715,5.2554e-05,5.34e-06,0.0,0 STARLINK-5498,1 55633U 23021F   24121.70908918  .00000534  00000-0  52554-4 0  9999,2 55633  69.9983 113.8727 0003574 269.9035  90.1715 14.98329752 66746,6950.194,96.107,574.543,569.575,0.0
55633.0,STARLINK-5498,PAYLOAD,2024-05-01 05:50:10,14.98329127,0.0003528,69.9985,112.5264,269.8987,90.1768,-7.6075e-07,-1.02e-06,0.0,0 STARLINK-5498,1 55633U 23021F   24122.24317146 -.00000102  00000-0 -76075-6 0  9995,2 55633  69.9985 112.5264 0003528 269.8987  90.1768 14.98329127 66524,6950.196,96.107,574.513,569.609,0.0
55633.0,STARLINK-5498,PAYLOAD,2024-05-01 09:02:26,14.98329714,0.000352,69.9985,112.1897,269.9485,90.1271,5.3823e-06,-2.9e-07,0.0,0 STARLINK-5498,1 55633U 23021F   24122.37669096 -.00000029  00000-0  53823-5 0  9995,2 55633  69.9985 112.1897 0003520 269.9485  90.1271 14.98329714 66844,6950.194,96.107,574.505,569.612,0.0
55633.0,STARLINK-5498,PAYLOAD,2024-05-01 17:03:06,14.98331506,0.0003489,69.9985,111.3479,269.8198,90.2561,1.5308e-05,9e-07,0.0,0 STARLINK-5498,1 55633U 23021F   24122.71048930  .00000090  00000-0  15308-4 0  9993,2 55633  69.9985 111.3479 0003489 269.8198  90.2561 14.98331506 66895,6950.188,96.107,574.478,569.628,0.0
55633.0,STARLINK-5498,PAYLOAD,2024-05-02 05:52:10,14.98334008,0.0003503,69.9984,110.0012,269.5373,90.5385,4.2769e-05,4.17e-06,0.0,0 STARLINK-5498,1 55633U 23021F   24123.24456611  .00000417  00000-0  42769-4 0  9995,2 55633  69.9984 110.0012 0003503 269.5373  90.5385 14.98334008 66675,6950.18,96.107,574.48,569.611,0.0
55633.0,STARLINK-5498,PAYLOAD,2024-05-02 09:04:26,14.98334855,0.000349,69.9984,109.6645,269.5507,90.5252,5.1569e-05,5.22e-06,0.0,0 STARLINK-5498,1 55633U 23021F   24123.37808501  .00000522  00000-0  51569-4 0  9993,2 55633  69.9984 109.6645 0003490 269.5507  90.5252 14.98334855 66993,6950.178,96.107,574.468,569.617,0.0
55633.0,STARLINK-5498,PAYLOAD,2024-05-03 05:54:11,14.9833173,0.0003458,69.9984,107.4763,269.4326,90.6437,5.8609e-05,6.06e-06,0.0,0 STARLINK-5498,1 55633U 23021F   24124.24596594  .00000606  00000-0  58609-4 0  9991,2 55633  69.9984 107.4763 0003458 269.4326  90.6437 14.98331730 66829,6950.188,96.107,574.456,569.649,0.0
55633.0,STARLINK-5498,PAYLOAD,2024-05-03 09:06:27,14.98332187,0.0003452,69.9985,107.1397,269.4701,90.6063,6.1157e-05,6.37e-06,0.0,0 STARLINK-5498,1 55633U 23021F   24124.37948543  .00000637  00000-0  61157-4 0  9996,2 55633  69.9985 107.1397 0003452 269.4701  90.6063 14.98332187 67149,6950.186,96.107,574.45,569.652,0.0
55633.0,STARLINK-5498,PAYLOAD,2024-05-03 15:31:00,14.98328456,0.0003433,69.9986,106.4663,269.5214,90.5551,9.3936e-06,1.9e-07,0.0,0 STARLINK-5498,1 55633U 23021F   24124.64652889  .00000019  00000-0  93936-5 0  9996,2 55633  69.9986 106.4663 0003433 269.5214  90.5551 14.98328456 67186,6950.198,96.107,574.449,569.677,0.0
